start=new Date('2023-03-10T00:00:00.000Z').valueOf();
sats=[{"MEAN_ANOMALY":"282.9501","ARG_OF_PERICENTER":"77.1600","CENTER_NAME":"EARTH","OBJECT_ID":"2020-055BD","DECAY_DATE":null,"MEAN_MOTION_DDOT":"0.0000000000000","NORAD_CAT_ID":"46078","ELEMENT_SET_NO":"999","RCS_SIZE":"LARGE","RA_OF_ASC_NODE":"335.8701","MEAN_MOTION_DOT":"0.00024177","MEAN_ELEMENT_THEORY":"SGP4","PERIOD":"95.591","REV_AT_EPOCH":"14411","LAUNCH_DATE":"2020-08-07","COUNTRY_CODE":"US","PERIAPSIS":"546.448","EPOCH":"2023-03-09T21:17:32.377920","BSTAR":"0.00163540000000","INCLINATION":"53.0552","TIME_SYSTEM":"UTC","CLASSIFICATION_TYPE":"U","OBJECT_NAME":"STARLINK-1563","APOAPSIS":"547.832","MEAN_MOTION":"15.06424041","FILE":"3855951","EPHEMERIS_TYPE":"0","REF_FRAME":"TEME","GP_ID":"227765722","TLE_LINE2":"2 46078  53.0552 335.8701 0000999  77.1600 282.9501 15.06424041144117","OBJECT_TYPE":"PAYLOAD","ECCENTRICITY":"0.00009990","SITE":"AFETR","TLE_LINE1":"1 46078U 20055BD  23068.88718030  .00024177  00000-0  16354-2 0  9993","SEMIMAJOR_AXIS":"6925.275"},{"ECCENTRICITY":"0.00012900","SITE":"AFETR","TLE_LINE1":"1 46079U 20055BE  23068.87983184  .00001223  00000-0  10104-3 0  9992","SEMIMAJOR_AXIS":"6925.437","REF_FRAME":"TEME","GP_ID":"227765476","TLE_LINE2":"2 46079  53.0538 335.9068 0001290  93.6593 266.4544 15.06371098144148","OBJECT_TYPE":"PAYLOAD","OBJECT_NAME":"STARLINK-1566","APOAPSIS":"548.196","FILE":"3855951","MEAN_MOTION":"15.06371098","EPHEMERIS_TYPE":"0","PERIAPSIS":"546.409","EPOCH":"2023-03-09T21:06:57.470976","BSTAR":"0.00010104000000","INCLINATION":"53.0538","CLASSIFICATION_TYPE":"U","TIME_SYSTEM":"UTC","MEAN_ELEMENT_THEORY":"SGP4","PERIOD":"95.594","LAUNCH_DATE":"2020-08-07","REV_AT_EPOCH":"14414","COUNTRY_CODE":"US","RCS_SIZE":"LARGE","RA_OF_ASC_NODE":"335.9068","MEAN_MOTION_DOT":"0.00001223","DECAY_DATE":null,"NORAD_CAT_ID":"46079","MEAN_MOTION_DDOT":"0.0000000000000","ELEMENT_SET_NO":"999","MEAN_ANOMALY":"266.4544","CENTER_NAME":"EARTH","ARG_OF_PERICENTER":"93.6593","OBJECT_ID":"2020-055BE"},{"EPHEMERIS_TYPE":"0","MEAN_MOTION":"15.06455224","FILE":"3855951","APOAPSIS":"547.940","OBJECT_NAME":"STARLINK-1568","TIME_SYSTEM":"UTC","CLASSIFICATION_TYPE":"U","INCLINATION":"53.0537","BSTAR":"0.00290880000000","EPOCH":"2023-03-09T21:42:43.752384","PERIAPSIS":"546.149","TLE_LINE1":"1 46080U 20055BF  23068.90467306  .00043377  00000-0  29088-2 0  9997","SEMIMAJOR_AXIS":"6925.179","ECCENTRICITY":"0.00012930","SITE":"AFETR","OBJECT_TYPE":"PAYLOAD","TLE_LINE2":"2 46080  53.0537 335.7856 0001293 129.5806 230.5297 15.06455224144120","GP_ID":"227764227","REF_FRAME":"TEME","ELEMENT_SET_NO":"999","NORAD_CAT_ID":"46080","MEAN_MOTION_DDOT":"0.0000000000000","DECAY_DATE":null,"OBJECT_ID":"2020-055BF","CENTER_NAME":"EARTH","ARG_OF_PERICENTER":"129.5806","MEAN_ANOMALY":"230.5297","COUNTRY_CODE":"US","LAUNCH_DATE":"2020-08-07","REV_AT_EPOCH":"14412","PERIOD":"95.589","MEAN_ELEMENT_THEORY":"SGP4","RA_OF_ASC_NODE":"335.7856","MEAN_MOTION_DOT":"0.00043377","RCS_SIZE":"LARGE"},{"COUNTRY_CODE":"US","REV_AT_EPOCH":"14400","LAUNCH_DATE":"2020-08-07","PERIOD":"95.590","MEAN_ELEMENT_THEORY":"SGP4","RA_OF_ASC_NODE":"339.8042","MEAN_MOTION_DOT":"0.00054538","RCS_SIZE":"LARGE","ELEMENT_SET_NO":"999","NORAD_CAT_ID":"46081","MEAN_MOTION_DDOT":"0.0000000000000","DECAY_DATE":null,"OBJECT_ID":"2020-055BG","ARG_OF_PERICENTER":"78.7353","CENTER_NAME":"EARTH","MEAN_ANOMALY":"281.3766","SEMIMAJOR_AXIS":"6925.263","TLE_LINE1":"1 46081U 20055BG  23068.00994178  .00054538  00000-0  36493-2 0  9990","SITE":"AFETR","ECCENTRICITY":"0.00011590","OBJECT_TYPE":"PAYLOAD","TLE_LINE2":"2 46081  53.0552 339.8042 0001159  78.7353 281.3766 15.06428054144006","GP_ID":"227764476","REF_FRAME":"TEME","EPHEMERIS_TYPE":"0","MEAN_MOTION":"15.06428054","FILE":"3855951","APOAPSIS":"547.930","OBJECT_NAME":"STARLINK-1571","TIME_SYSTEM":"UTC","CLASSIFICATION_TYPE":"U","INCLINATION":"53.0552","BSTAR":"0.00364930000000","PERIAPSIS":"546.325","EPOCH":"2023-03-09T00:14:18.969792"},{"COUNTRY_CODE":"US","REV_AT_EPOCH":"14414","LAUNCH_DATE":"2020-08-07","MEAN_ELEMENT_THEORY":"SGP4","PERIOD":"95.591","MEAN_MOTION_DOT":"0.00020564","RA_OF_ASC_NODE":"335.8345","RCS_SIZE":"LARGE","MEAN_MOTION_DDOT":"0.0000000000000","NORAD_CAT_ID":"46082","ELEMENT_SET_NO":"999","DECAY_DATE":null,"OBJECT_ID":"2020-055BH","ARG_OF_PERICENTER":"95.0264","CENTER_NAME":"EARTH","MEAN_ANOMALY":"265.0909","SEMIMAJOR_AXIS":"6925.316","TLE_LINE1":"1 46082U 20055BH  23068.89455182  .00020564  00000-0  13950-2 0  9990","ECCENTRICITY":"0.00016130","SITE":"AFETR","OBJECT_TYPE":"PAYLOAD","TLE_LINE2":"2 46082  53.0546 335.8345 0001613  95.0264 265.0909 15.06410658144144","GP_ID":"227765222","REF_FRAME":"TEME","MEAN_MOTION":"15.06410658","FILE":"3855951","EPHEMERIS_TYPE":"0","APOAPSIS":"548.298","OBJECT_NAME":"STARLINK-1578","CLASSIFICATION_TYPE":"U","TIME_SYSTEM":"UTC","INCLINATION":"53.0546","BSTAR":"0.00139500000000","EPOCH":"2023-03-09T21:28:09.277248","PERIAPSIS":"546.064"},{"APOAPSIS":"547.663","OBJECT_NAME":"STARLINK-1579","MEAN_MOTION":"15.06415464","FILE":"3855951","EPHEMERIS_TYPE":"0","BSTAR":"0.00103210000000","EPOCH":"2023-03-09T22:21:13.249440","PERIAPSIS":"546.670","TIME_SYSTEM":"UTC","CLASSIFICATION_TYPE":"U","INCLINATION":"53.0541","TLE_LINE1":"1 46083U 20055BJ  23068.93140335  .00015131  00000-0  10321-2 0  9990","SEMIMAJOR_AXIS":"6925.301","ECCENTRICITY":"0.00007170","SITE":"AFETR","TLE_LINE2":"2 46083  53.0541 335.6635 0000717  93.1289 266.9782 15.06415464144149","GP_ID":"227765976","REF_FRAME":"TEME","OBJECT_TYPE":"PAYLOAD","NORAD_CAT_ID":"46083","MEAN_MOTION_DDOT":"0.0000000000000","ELEMENT_SET_NO":"999","DECAY_DATE":null,"ARG_OF_PERICENTER":"93.1289","CENTER_NAME":"EARTH","MEAN_ANOMALY":"266.9782","OBJECT_ID":"2020-055BJ","MEAN_ELEMENT_THEORY":"SGP4","PERIOD":"95.591","COUNTRY_CODE":"US","LAUNCH_DATE":"2020-08-07","REV_AT_EPOCH":"14414","MEAN_MOTION_DOT":"0.00015131","RA_OF_ASC_NODE":"335.6635","RCS_SIZE":"LARGE"},{"REF_FRAME":"TEME","GP_ID":"227765480","TLE_LINE2":"2 46117  53.0524 177.3053 0001763 100.4696 259.6492 15.06414589141139","OBJECT_TYPE":"PAYLOAD","SITE":"AFETR","ECCENTRICITY":"0.00017630","TLE_LINE1":"1 46117U 20057A   23068.56650366  .00013949  00000-0  95314-3 0  9990","SEMIMAJOR_AXIS":"6925.304","EPOCH":"2023-03-09T13:35:45.916224","PERIAPSIS":"545.948","BSTAR":"0.00095314000000","INCLINATION":"53.0524","TIME_SYSTEM":"UTC","CLASSIFICATION_TYPE":"U","OBJECT_NAME":"STARLINK-1585","APOAPSIS":"548.390","EPHEMERIS_TYPE":"0","FILE":"3855951","MEAN_MOTION":"15.06414589","RCS_SIZE":"LARGE","MEAN_MOTION_DOT":"0.00013949","RA_OF_ASC_NODE":"177.3053","PERIOD":"95.591","MEAN_ELEMENT_THEORY":"SGP4","LAUNCH_DATE":"2020-08-18","REV_AT_EPOCH":"14113","COUNTRY_CODE":"US","MEAN_ANOMALY":"259.6492","ARG_OF_PERICENTER":"100.4696","CENTER_NAME":"EARTH","OBJECT_ID":"2020-057A","DECAY_DATE":null,"ELEMENT_SET_NO":"999","MEAN_MOTION_DDOT":"0.0000000000000","NORAD_CAT_ID":"46117"},{"OBJECT_ID":"2020-057B","MEAN_ANOMALY":"286.1403","CENTER_NAME":"EARTH","ARG_OF_PERICENTER":"73.9753","DECAY_DATE":null,"MEAN_MOTION_DDOT":"0.0000000000000","NORAD_CAT_ID":"46118","ELEMENT_SET_NO":"999","RCS_SIZE":"LARGE","RA_OF_ASC_NODE":"197.5626","MEAN_MOTION_DOT":"0.00001637","LAUNCH_DATE":"2020-08-18","REV_AT_EPOCH":"14212","COUNTRY_CODE":"US","MEAN_ELEMENT_THEORY":"SGP4","PERIOD":"95.592","INCLINATION":"53.0546","TIME_SYSTEM":"UTC","CLASSIFICATION_TYPE":"U","PERIAPSIS":"546.151","EPOCH":"2023-03-09T12:13:29.472096","BSTAR":"0.00012874000000","MEAN_MOTION":"15.06403110","FILE":"3855951","EPHEMERIS_TYPE":"0","OBJECT_NAME":"STARLINK-1588","APOAPSIS":"548.257","OBJECT_TYPE":"PAYLOAD","REF_FRAME":"TEME","TLE_LINE2":"2 46118  53.0546 197.5626 0001520  73.9753 286.1403 15.06403110142128","GP_ID":"227764231","ECCENTRICITY":"0.00015200","SITE":"AFETR","TLE_LINE1":"1 46118U 20057B   23068.50936889  .00001637  00000-0  12874-3 0  9993","SEMIMAJOR_AXIS":"6925.339"},{"MEAN_MOTION":"15.06410482","FILE":"3855951","EPHEMERIS_TYPE":"0","OBJECT_NAME":"STARLINK-1593","APOAPSIS":"548.404","INCLINATION":"53.0560","TIME_SYSTEM":"UTC","CLASSIFICATION_TYPE":"U","EPOCH":"2023-03-09T13:33:06.974784","PERIAPSIS":"545.959","BSTAR":"0.00088941000000","ECCENTRICITY":"0.00017650","SITE":"AFETR","TLE_LINE1":"1 46119U 20057C   23068.56466406  .00012995  00000-0  88941-3 0  9990","SEMIMAJOR_AXIS":"6925.316","OBJECT_TYPE":"PAYLOAD","REF_FRAME":"TEME","TLE_LINE2":"2 46119  53.0560 197.3122 0001765  99.5848 260.5341 15.06410482142110","GP_ID":"227764480","DECAY_DATE":null,"NORAD_CAT_ID":"46119","MEAN_MOTION_DDOT":"0.0000000000000","ELEMENT_SET_NO":"999","OBJECT_ID":"2020-057C","MEAN_ANOMALY":"260.5341","ARG_OF_PERICENTER":"99.5848","CENTER_NAME":"EARTH","LAUNCH_DATE":"2020-08-18","REV_AT_EPOCH":"14211","COUNTRY_CODE":"US","MEAN_ELEMENT_THEORY":"SGP4","PERIOD":"95.591","RCS_SIZE":"LARGE","MEAN_MOTION_DOT":"0.00012995","RA_OF_ASC_NODE":"197.3122"},{"REF_FRAME":"TEME","GP_ID":"227765226","TLE_LINE2":"2 46120  53.0517 198.2744 0001427  85.7869 274.3283 15.06396022142109","OBJECT_TYPE":"PAYLOAD","SITE":"AFETR","ECCENTRICITY":"0.00014270","SEMIMAJOR_AXIS":"6925.361","TLE_LINE1":"1 46120U 20057D   23068.35088063  .00003006  00000-0  22065-3 0  9996","EPOCH":"2023-03-09T08:25:16.086432","PERIAPSIS":"546.238","BSTAR":"0.00022065000000","INCLINATION":"53.0517","TIME_SYSTEM":"UTC","CLASSIFICATION_TYPE":"U","OBJECT_NAME":"STARLINK-1601","APOAPSIS":"548.214","MEAN_MOTION":"15.06396022","FILE":"3855951","EPHEMERIS_TYPE":"0","RCS_SIZE":"LARGE","RA_OF_ASC_NODE":"198.2744","MEAN_MOTION_DOT":"0.00003006","MEAN_ELEMENT_THEORY":"SGP4","PERIOD":"95.592","REV_AT_EPOCH":"14210","LAUNCH_DATE":"2020-08-18","COUNTRY_CODE":"US","MEAN_ANOMALY":"274.3283","ARG_OF_PERICENTER":"85.7869","CENTER_NAME":"EARTH","OBJECT_ID":"2020-057D","DECAY_DATE":null,"MEAN_MOTION_DDOT":"0.0000000000000","NORAD_CAT_ID":"46120","ELEMENT_SET_NO":"999"}];
